[{"OBJECT_NAME":"STARLINK-32155","OBJECT_ID":"2024-131V","EPOCH":"2026-03-09T22:24:19.205568","MEAN_MOTION":15.30182579,"ECCENTRICITY":0.00013294,"INCLINATION":53.1613,"RA_OF_ASC_NODE":51.4607,"ARG_OF_PERICENTER":97.9871,"MEAN_ANOMALY":262.1281,"EPHEMERIS_TYPE":0,"CLASSIFICATION_TYPE":"U","NORAD_CAT_ID":60274,"ELEMENT_SET_NO":999,"REV_AT_EPOCH":9165,"BSTAR":3.500331e-5,"MEAN_MOTION_DOT":6.77e-6,"MEAN_MOTION_DDOT":0},{"OBJECT_NAME":"OBJECT K","OBJECT_ID":"2024-205K","EPOCH":"2026-03-09T22:22:01.331040","MEAN_MOTION":15.27932792,"ECCENTRICITY":0.00106729,"INCLINATION":97.417,"RA_OF_ASC_NODE":146.2172,"ARG_OF_PERICENTER":37.4736,"MEAN_ANOMALY":322.7246,"EPHEMERIS_TYPE":0,"CLASSIFICATION_TYPE":"U","NORAD_CAT_ID":61903,"ELEMENT_SET_NO":999,"REV_AT_EPOCH":7347,"BSTAR":0.00067315144,"MEAN_MOTION_DOT":0.00018331,"MEAN_MOTION_DDOT":0}]
